ONEWEB-0328             
1 49197U 21083M   25128.71839555 -.00000094  00000+0 -29305-3 0  9991
2 49197  87.8986  40.5856 0001968  82.6736 277.4617 13.13469404177804
ONEWEB-0331             
1 49198U 21083N   25128.72666768  .00000055  00000+0  10625-3 0  9997
2 49198  87.9147  55.8383 0002362  81.3772 278.7628 13.18685684176703
ONEWEB-0333             
1 49199U 21083P   25128.71331265 -.00000128  00000+0 -38626-3 0  9992
2 49199  87.8997  40.6479 0001826  79.6784 280.4551 13.13469792177814
ONEWEB-0334             
1 49200U 21083Q   25128.67700790 -.00001250  00000+0 -31052-2 0  9995
2 49200  87.9286 355.0242 0000691  65.7593 294.3613 13.20776663183392
ONEWEB-0335             
1 49201U 21083R   25128.70823758 -.00000243  00000+0 -70017-3 0  9996
2 49201  87.9000  40.6376 0002096  77.3437 282.7926 13.13469482177828
ONEWEB-0336             
1 49202U 21083S   25128.67946369  .00000128  00000+0  31573-3 0  9991
2 49202  87.8999  40.6370 0001909  74.6389 285.4951 13.13468644177813
ONEWEB-0337             
1 49203U 21083T   25128.68948387 -.00000087  00000+0 -27252-3 0  9990
2 49203  87.9001  40.6339 0002039  82.4404 277.6957 13.13468872177816
ONEWEB-0338             
1 49204U 21083U   25128.65178059  .00000086  00000+0  17950-3 0  9990
2 49204  87.9291 355.0168 0001435  83.8147 276.3150 13.20772634183415
ONEWEB-0339             
1 49205U 21083V   25128.69807779 -.00000191  00000+0 -55696-3 0  9991
2 49205  87.8997  40.6202 0001837  82.5864 277.5474 13.13469567177798
ONEWEB-0340             
1 49206U 21083W   25128.71247503 -.00000016  00000+0 -72488-4 0  9993
2 49206  87.9153  55.8387 0002097  80.1601 279.9768 13.18689267176661
ONEWEB-0341             
1 49207U 21083X   25128.72038491  .00000020  00000+0  17354-4 0  9993
2 49207  87.9154  55.8473 0002127  96.5471 263.5904 13.18687671176689
ONEWEB-0342             
1 49208U 21083Y   25128.65809498  .00000173  00000+0  39299-3 0  9999
2 49208  87.9281 354.9974 0001782  84.6270 275.5067 13.20771909183380
ONEWEB-0343             
1 49209U 21083Z   25128.71565441  .00001085  00000+0  27195-2 0  9998
2 49209  87.9147  55.8361 0001870  98.3790 261.7555 13.18683474176732
ONEWEB-0344             
1 49210U 21083AA  25128.69300472  .00000974  00000+0  26334-2 0  9998
2 49210  87.9001  40.6593 0002040  89.2668 270.8694 13.13462803177793
ONEWEB-0345             
1 49211U 21083AB  25128.68453401 -.00000026  00000+0 -10569-3 0  9993
2 49211  87.8996  40.6154 0002158  92.1636 267.9740 13.13467664177808
ONEWEB-0346             
1 49212U 21083AC  25128.72512928  .00000052  00000+0  99793-4 0  9993
2 49212  87.9154  55.8557 0002533  72.7773 287.3636 13.18685780176674
ONEWEB-0348             
1 49213U 21083AD  25128.64862897  .00000134  00000+0  29812-3 0  9993
2 49213  87.9293 355.0028 0002460  89.3555 270.7860 13.20772137183419
ONEWEB-0350             
1 49214U 21083AE  25128.69383497  .00000384  00000+0  10187-2 0  9994
2 49214  87.9017  40.6035 0001364  92.7971 267.3315 13.13311658177836
ONEWEB-0351             
1 49215U 21083AF  25128.64217032  .00000106  00000+0  22861-3 0  9996
2 49215  87.9288 354.9890 0001148 103.7024 256.4237 13.20770119183376
ONEWEB-0352             
1 49216U 21083AG  25128.75055904  .00000254  00000+0  66060-3 0  9990
2 49216  87.8998  40.6336 0001468  87.2244 272.9053 13.13470462177937
ONEWEB-0354             
1 49217U 21083AH  25128.66756603  .00000071  00000+0  14382-3 0  9992
2 49217  87.9293 354.9809 0002073  90.6847 269.4523 13.20772376183413
ONEWEB-0355             
1 49218U 21083AJ  25128.70328680 -.00000263  00000+0 -75462-3 0  9999
2 49218  87.8997  40.6410 0001827  86.3335 273.8003 13.13469457177804
ONEWEB-0357             
1 49219U 21083AK  25128.66440438  .00000101  00000+0  21722-3 0  9990
2 49219  87.9288 354.9890 0001711  89.2137 270.9192 13.20772085183419
ONEWEB-0332             
1 49279U 21090A   25128.72872656  .00000150  00000+0  36889-3 0  9996
2 49279  87.9074  10.1753 0001535  77.7199 282.4102 13.14501356174447
ONEWEB-0347             
1 49280U 21090B   25128.65492983  .00000062  00000+0  12124-3 0  9999
2 49280  87.9292 354.9979 0001620  72.2814 287.8496 13.20772331177649
ONEWEB-0349             
1 49281U 21090C   25128.68649604  .00000044  00000+0  75556-4 0  9996
2 49281  87.9293 354.9966 0001750  87.4291 272.7042 13.20771942176431
ONEWEB-0353             
1 49282U 21090D   25128.72079973  .00000206  00000+0  52155-3 0  9997
2 49282  87.9072  10.1632 0001619  75.9167 284.2143 13.14502075174447
ONEWEB-0356             
1 49283U 21090E   25128.68492060  .00000025  00000+0  28854-4 0  9998
2 49283  87.9290 354.9886 0002483  66.7256 293.4138 13.20772291176430
ONEWEB-0358             
1 49284U 21090F   25128.63915843  .00000048  00000+0  86758-4 0  9995
2 49284  87.9292 354.9873 0001983  83.9787 276.1572 13.20772507177153
ONEWEB-0359             
1 49285U 21090G   25128.63600060  .00000053  00000+0  99423-4 0  9997
2 49285  87.9291 355.0008 0002137  91.2738 268.8640 13.20772453177137
ONEWEB-0360             
1 49286U 21090H   25128.70228432 -.00000008  00000+0 -52306-4 0  9996
2 49286  87.9291 354.9934 0001911  87.1030 273.0322 13.20772459176457
ONEWEB-0361             
1 49287U 21090J   25128.68334187 -.00000034  00000+0 -11447-3 0  9998
2 49287  87.9292 354.9926 0001913  79.9105 280.2244 13.20773004176904
ONEWEB-0362             
1 49288U 21090K   25128.69463542  .00000001  00000+0 -29774-4 0  9994
2 49288  87.9257  25.3961 0001780  86.2231 273.9105 13.19724510173567
ONEWEB-0363             
1 49289U 21090L   25128.62337214 -.00000017  00000+0 -72954-4 0  9990
2 49289  87.9291 354.9994 0002146  76.9424 283.1949 13.20772772177737
ONEWEB-0364             
1 49290U 21090M   25128.66123473 -.00000261  00000+0 -67385-3 0  9998
2 49290  87.9292 355.0215 0001888  79.3731 280.7615 13.20770800178046
ONEWEB-0365             
1 49291U 21090N   25128.70411569  .00000008  00000+0 -12265-4 0  9996
2 49291  87.9250  25.3534 0001739  80.0268 280.1061 13.19726775173078
ONEWEB-0366             
1 49292U 21090P   25128.71763014  .00000055  00000+0  11256-3 0  9992
2 49292  87.9073  10.1760 0001863  80.6755 279.4585 13.14502227174421
ONEWEB-0367             
1 49293U 21090Q   25128.62179077 -.00000051  00000+0 -15685-3 0  9991
2 49293  87.9292 354.9949 0001620  89.0114 271.1205 13.20772524177726
ONEWEB-0368             
1 49294U 21090R   25128.67070962  .00000034  00000+0  51898-4 0  9996
2 49294  87.9293 355.0182 0001737  55.4388 304.6909 13.20773875177585
ONEWEB-0369             
1 49295U 21090S   25128.69936216 -.00000016  00000+0 -71194-4 0  9995
2 49295  87.9257  25.3797 0001763  77.7355 282.3975 13.19727658173065
ONEWEB-0370             
1 49296U 21090T   25128.63126348 -.00000001  00000+0 -34826-4 0  9992
2 49296  87.9292 354.9982 0001850  94.9916 265.1428 13.20772695176465
ONEWEB-0371             
1 49297U 21090U   25128.70727337  .00000008  00000+0 -12054-4 0  9991
2 49297  87.9256  25.3678 0001759  82.0726 278.0607 13.19727435173102
ONEWEB-0372             
1 49298U 21090V   25128.69583743  .00000064  00000+0  12472-3 0  9995
2 49298  87.9292 354.9948 0001669  81.4460 278.6863 13.20772490176445
ONEWEB-0373             
1 49299U 21090W   25128.64705143  .00000083  00000+0  17338-3 0  9998
2 49299  87.9290 355.0160 0001914  77.6608 282.4739 13.20772481177622
ONEWEB-0374             
1 49300U 21090X   25128.70494033 -.00000134  00000+0 -39570-3 0  9992
2 49300  87.9071  10.1593 0002062  67.5915 292.5433 13.14501825174428
ONEWEB-0375             
1 49301U 21090Y   25128.71017783  .00000107  00000+0  23178-3 0  9992
2 49301  87.9292 354.9812 0002406  77.7396 282.4007 13.20771608177136
ONEWEB-0376             
1 49302U 21090Z   25128.70569036  .00000000  00000+0 -32190-4 0  9993
2 49302  87.9252  25.3554 0001588  78.5228 281.6083 13.19727656173108
ONEWEB-0377             
1 49303U 21090AA  25128.69610641  .00000044  00000+0  76904-4 0  9999
2 49303  87.9291 354.9768 0002037  89.7825 270.3541 13.20773110177125
ONEWEB-0378             
1 49304U 21090AB  25128.64244897  .00000143  00000+0  32079-3 0  9995
2 49304  87.9293 354.9945 0001976  81.2728 278.8629 13.20772350176387
ONEWEB-0379             
1 49305U 21090AC  25128.70017673 -.00000198  00000+0 -56868-3 0  9997
2 49305  87.9075  10.1646 0001767  77.0235 283.1092 13.14502137174422
ONEWEB-0380             
1 49306U 21090AD  25128.70252054 -.00000265  00000+0 -69312-3 0  9995
2 49306  87.9258  25.3813 0002058  80.9686 279.1679 13.19724771173078
ONEWEB-0381             
1 49307U 21090AE  25128.69280126  .00000016  00000+0  71361-5 0  9996
2 49307  87.9292 354.9855 0002048  81.3655 278.7710 13.20773703176439
ONEWEB-0382             
1 49308U 21090AF  25128.68019134  .00000007  00000+0 -14087-4 0  9997
2 49308  87.9292 354.9827 0002054  75.4417 284.6944 13.20772475176425
ONEWEB-0383             
1 49309U 21090AG  25128.69382154 -.00000263  00000+0 -74469-3 0  9998
2 49309  87.9071  10.1470 0001781  74.5014 285.6313 13.14500583174459
ONEWEB-0384             
1 49310U 21090AH  25128.67665348  .00000003  00000+0 -24715-4 0  9998
2 49310  87.9294 354.9998 0002146  70.5622 289.5743 13.20782489176433
ONEWEB-0385             
1 49311U 21090AJ  25128.67228789  .00000012  00000+0 -28093-5 0  9997
2 49311  87.9292 355.0013 0001919  78.9783 281.1566 13.20773892176405
ONEWEB-0386             
1 49312U 21090AK  25128.68965721 -.00000008  00000+0 -50750-4 0  9993
2 49312  87.9286 354.9709 0001927  75.0078 285.1268 13.20773085176422
ONEWEB-0387             
1 49313U 21090AL  25128.67387455  .00000033  00000+0  48053-4 0  9994
2 49313  87.9275 355.0402 0002157  83.2855 276.8524 13.20772006176427
ONEWEB-0388             
1 49314U 21090AM  25128.69778555 -.00004777  00000+0 -11966-1 0  9993
2 49314  87.9258  25.3871 0001814  79.4140 280.7197 13.19746490174355
